NORAD_CAT_ID,OBJECT_NAME,OBJECT_TYPE,EPOCH,MEAN_MOTION,ECCENTRICITY,INCLINATION,RA_OF_ASC_NODE,ARG_OF_PERICENTER,MEAN_ANOMALY,BSTAR,MEAN_MOTION_DOT,MEAN_MOTION_DDOT,TLE_LINE0,TLE_LINE1,TLE_LINE2,SEMIMAJOR_AXIS,PERIOD,APOGEE,PERIGEE,DECAYED
50192.0,STARLINK-3259,PAYLOAD,2024-08-15 20:13:58,15.08863487,0.0001696,53.216,281.7538,73.667,286.4508,0.00050181,7.712e-05,0.0,0 STARLINK-3259,1 50192U 21125AN  24228.84303522  .00007712  00000-0  50181-3 0  9998,2 50192  53.2160 281.7538 0001696  73.6670 286.4508 15.08863487147466,6917.809,95.436,540.847,538.5,0.0
50192.0,STARLINK-3259,PAYLOAD,2024-08-16 08:57:03,15.08835965,0.0001688,53.2161,279.3741,71.4094,288.7082,0.00035926,5.434e-05,0.0,0 STARLINK-3259,1 50192U 21125AN  24229.37295522  .00005434  00000-0  35926-3 0  9996,2 50192  53.2161 279.3741 0001688  71.4094 288.7082 15.08835965147544,6917.893,95.438,540.925,538.59,0.0
50192.0,STARLINK-3259,PAYLOAD,2024-08-17 07:12:27,15.08837117,0.0001638,53.2149,275.2122,76.9637,283.1537,0.00015336,2.153e-05,0.0,0 STARLINK-3259,1 50192U 21125AN  24230.30031742  .00002153  00000-0  15336-3 0  9991,2 50192  53.2149 275.2122 0001638  76.9637 283.1537 15.08837117147686,6917.889,95.438,540.887,538.621,0.0
50192.0,STARLINK-3259,PAYLOAD,2024-08-18 11:49:23,15.08847312,0.0001627,53.2152,269.8587,79.2589,280.8586,0.00020218,2.932e-05,0.0,0 STARLINK-3259,1 50192U 21125AN  24231.49263413  .00002932  00000-0  20218-3 0  9994,2 50192  53.2152 269.8587 0001627  79.2589 280.8586 15.08847312147860,6917.858,95.437,540.849,538.598,0.0
50192.0,STARLINK-3259,PAYLOAD,2024-08-19 10:04:47,15.08841477,0.0001529,53.2148,265.6959,79.966,280.1505,0.00013646,1.885e-05,0.0,0 STARLINK-3259,1 50192U 21125AN  24232.41999642  .00001885  00000-0  13646-3 0  9990,2 50192  53.2148 265.6959 0001529  79.9660 280.1505 15.08841477148007,6917.876,95.437,540.799,538.683,0.0
50192.0,STARLINK-3259,PAYLOAD,2024-08-20 08:20:11,15.08844677,0.0001539,53.2147,261.5319,84.1534,275.9633,5.729e-05,6.24e-06,0.0,0 STARLINK-3259,1 50192U 21125AN  24233.34735388  .00000624  00000-0  57290-4 0  9992,2 50192  53.2147 261.5319 0001539  84.1534 275.9633 15.08844677151238,6917.866,95.437,540.796,538.666,0.0
50192.0,STARLINK-3259,PAYLOAD,2024-08-21 05:00:12,15.08838199,0.0001503,53.2157,257.6657,85.0589,275.0575,7.026e-05,8.3e-06,0.0,0 STARLINK-3259,1 50192U 21125AN  24234.20847766  .00000830  00000-0  70260-4 0  9993,2 50192  53.2157 257.6657 0001503  85.0589 275.0575 15.08838199148279,6917.886,95.438,540.791,538.711,0.0
50192.0,STARLINK-3259,PAYLOAD,2024-08-21 08:10:58,15.08836932,0.0001498,53.2151,257.0705,84.399,275.7173,5.3041e-05,5.56e-06,0.0,0 STARLINK-3259,1 50192U 21125AN  24234.34095855  .00000556  00000-0  53041-4 0  9995,2 50192  53.2151 257.0705 0001498  84.3990 275.7173 15.08836932151382,6917.89,95.438,540.791,538.718,0.0
